CCSDS_OMM_VERS = 2.0
CREATION_DATE  = 
ORIGINATOR     = 

OBJECT_NAME    = DELTA 2 R/B(1)
OBJECT_ID      = 1990-008B
CENTER_NAME    = EARTH
REF_FRAME      = TEME
TIME_SYSTEM    = UTC
MEAN_ELEMENT_THEORY = SGP/SGP4

EPOCH          = 2026-01-28T20:13:39.965952
MEAN_MOTION    = 15.50468152
ECCENTRICITY   = .00992734
INCLINATION    = 35.6054
RA_OF_ASC_NODE = 75.2626
ARG_OF_PERICENTER = 249.0413
MEAN_ANOMALY   = 109.9675

EPHEMERIS_TYPE = 0
CLASSIFICATION_TYPE = U
NORAD_CAT_ID   = 20453
ELEMENT_SET_NO = 999
REV_AT_EPOCH   = 91993
BSTAR          = .10017492E-2
MEAN_MOTION_DOT = .7302E-3
MEAN_MOTION_DDOT = 0

CCSDS_OMM_VERS = 2.0
CREATION_DATE  = 
ORIGINATOR     = 

OBJECT_NAME    = COSMOS 2058
OBJECT_ID      = 1990-010A
CENTER_NAME    = EARTH
REF_FRAME      = TEME
TIME_SYSTEM    = UTC
MEAN_ELEMENT_THEORY = SGP/SGP4

EPOCH          = 2026-01-28T20:26:11.241600
MEAN_MOTION    = 15.10953974
ECCENTRICITY   = .00118033
INCLINATION    = 82.4651
RA_OF_ASC_NODE = 86.6746
ARG_OF_PERICENTER = 107.9257
MEAN_ANOMALY   = 252.3261

EPHEMERIS_TYPE = 0
CLASSIFICATION_TYPE = U
NORAD_CAT_ID   = 20465
ELEMENT_SET_NO = 999
REV_AT_EPOCH   = 93622
BSTAR          = .31534992E-3
MEAN_MOTION_DOT = .5295E-4
MEAN_MOTION_DDOT = 0

CCSDS_OMM_VERS = 2.0
CREATION_DATE  = 
ORIGINATOR     = 

OBJECT_NAME    = SL-14 R/B
OBJECT_ID      = 1990-010B
CENTER_NAME    = EARTH
REF_FRAME      = TEME
TIME_SYSTEM    = UTC
MEAN_ELEMENT_THEORY = SGP/SGP4

EPOCH          = 2026-01-28T19:48:44.597088
MEAN_MOTION    = 14.83530339
ECCENTRICITY   = .00213567
INCLINATION    = 82.5043
RA_OF_ASC_NODE = 304.8314
ARG_OF_PERICENTER = 72.5257
MEAN_ANOMALY   = 287.8290

EPHEMERIS_TYPE = 0
CLASSIFICATION_TYPE = U
NORAD_CAT_ID   = 20466
ELEMENT_SET_NO = 999
REV_AT_EPOCH   = 92257
BSTAR          = .91540206E-4
MEAN_MOTION_DOT = .78E-5
MEAN_MOTION_DDOT = 0

CCSDS_OMM_VERS = 2.0
CREATION_DATE  = 
ORIGINATOR     = 

OBJECT_NAME    = SL-14 R/B
OBJECT_ID      = 1990-018B
CENTER_NAME    = EARTH
REF_FRAME      = TEME
TIME_SYSTEM    = UTC
MEAN_ELEMENT_THEORY = SGP/SGP4

EPOCH          = 2026-01-28T22:33:24.889824
MEAN_MOTION    = 14.82103833
ECCENTRICITY   = .00153598
INCLINATION    = 82.5194
RA_OF_ASC_NODE = 260.2519
ARG_OF_PERICENTER = 219.0555
MEAN_ANOMALY   = 140.9552

EPHEMERIS_TYPE = 0
CLASSIFICATION_TYPE = U
NORAD_CAT_ID   = 20511
ELEMENT_SET_NO = 999
REV_AT_EPOCH   = 91669
BSTAR          = .76380633E-4
MEAN_MOTION_DOT = .632E-5
MEAN_MOTION_DDOT = 0

CCSDS_OMM_VERS = 2.0
CREATION_DATE  = 
ORIGINATOR     = 

OBJECT_NAME    = HST
OBJECT_ID      = 1990-037B
CENTER_NAME    = EARTH
REF_FRAME      = TEME
TIME_SYSTEM    = UTC
MEAN_ELEMENT_THEORY = SGP/SGP4

EPOCH          = 2026-01-28T22:27:47.668896
MEAN_MOTION    = 15.28827552
ECCENTRICITY   = .0001889
INCLINATION    = 28.4680
RA_OF_ASC_NODE = 311.0608
ARG_OF_PERICENTER = 37.6282
MEAN_ANOMALY   = 322.4445

EPHEMERIS_TYPE = 0
CLASSIFICATION_TYPE = U
NORAD_CAT_ID   = 20580
ELEMENT_SET_NO = 999
REV_AT_EPOCH   = 76722
BSTAR          = .39257234E-3
MEAN_MOTION_DOT = .11557E-3
MEAN_MOTION_DDOT = 0

CCSDS_OMM_VERS = 2.0
CREATION_DATE  = 
ORIGINATOR     = 

OBJECT_NAME    = SL-16 R/B
OBJECT_ID      = 1990-046B
CENTER_NAME    = EARTH
REF_FRAME      = TEME
TIME_SYSTEM    = UTC
MEAN_ELEMENT_THEORY = SGP/SGP4

EPOCH          = 2026-01-28T23:14:25.486656
MEAN_MOTION    = 14.15006145
ECCENTRICITY   = .00142593
INCLINATION    = 70.9994
RA_OF_ASC_NODE = 21.3330
ARG_OF_PERICENTER = 354.6075
MEAN_ANOMALY   = 5.4892

EPHEMERIS_TYPE = 0
CLASSIFICATION_TYPE = U
NORAD_CAT_ID   = 20625
ELEMENT_SET_NO = 999
REV_AT_EPOCH   = 84277
BSTAR          = -.85318345E-4
MEAN_MOTION_DOT = -.213E-5
MEAN_MOTION_DDOT = 0

CCSDS_OMM_VERS = 2.0
CREATION_DATE  = 
ORIGINATOR     = 

OBJECT_NAME    = COSMOS 2084
OBJECT_ID      = 1990-055A
CENTER_NAME    = EARTH
REF_FRAME      = TEME
TIME_SYSTEM    = UTC
MEAN_ELEMENT_THEORY = SGP/SGP4

EPOCH          = 2026-01-28T16:05:28.478400
MEAN_MOTION    = 15.05384035
ECCENTRICITY   = .00235401
INCLINATION    = 62.7905
RA_OF_ASC_NODE = 112.0435
ARG_OF_PERICENTER = 181.9969
MEAN_ANOMALY   = 178.1041

EPHEMERIS_TYPE = 0
CLASSIFICATION_TYPE = U
NORAD_CAT_ID   = 20663
ELEMENT_SET_NO = 999
REV_AT_EPOCH   = 93029
BSTAR          = .32309655E-3
MEAN_MOTION_DOT = .4481E-4
MEAN_MOTION_DDOT = 0

CCSDS_OMM_VERS = 2.0
CREATION_DATE  = 
ORIGINATOR     = 

OBJECT_NAME    = SL-6 R/B(2)
OBJECT_ID      = 1990-055D
CENTER_NAME    = EARTH
REF_FRAME      = TEME
TIME_SYSTEM    = UTC
MEAN_ELEMENT_THEORY = SGP/SGP4

EPOCH          = 2026-01-28T23:57:21.405024
MEAN_MOTION    = 15.03364584
ECCENTRICITY   = .00189606
INCLINATION    = 62.7840
RA_OF_ASC_NODE = 28.8045
ARG_OF_PERICENTER = 334.8333
MEAN_ANOMALY   = 25.1840

EPHEMERIS_TYPE = 0
CLASSIFICATION_TYPE = U
NORAD_CAT_ID   = 20666
ELEMENT_SET_NO = 999
REV_AT_EPOCH   = 93222
BSTAR          = .3114363E-3
MEAN_MOTION_DOT = .407E-4
MEAN_MOTION_DDOT = 0

CCSDS_OMM_VERS = 2.0
CREATION_DATE  = 
ORIGINATOR     = 

OBJECT_NAME    = SL-8 R/B
OBJECT_ID      = 1990-078B
CENTER_NAME    = EARTH
REF_FRAME      = TEME
TIME_SYSTEM    = UTC
MEAN_ELEMENT_THEORY = SGP/SGP4

EPOCH          = 2026-01-28T17:00:36.625536
MEAN_MOTION    = 14.87696473
ECCENTRICITY   = .0367916
INCLINATION    = 82.9046
RA_OF_ASC_NODE = 287.2246
ARG_OF_PERICENTER = 147.9182
MEAN_ANOMALY   = 214.5023

EPHEMERIS_TYPE = 0
CLASSIFICATION_TYPE = U
NORAD_CAT_ID   = 20775
ELEMENT_SET_NO = 999
REV_AT_EPOCH   = 80335
BSTAR          = .73467419E-3
MEAN_MOTION_DOT = .24671E-3
MEAN_MOTION_DDOT = 0

CCSDS_OMM_VERS = 2.0
CREATION_DATE  = 
ORIGINATOR     = 

OBJECT_NAME    = SL-8 R/B
OBJECT_ID      = 1991-006B
CENTER_NAME    = EARTH
REF_FRAME      = TEME
TIME_SYSTEM    = UTC
MEAN_ELEMENT_THEORY = SGP/SGP4

EPOCH          = 2026-01-28T23:28:19.701984
MEAN_MOTION    = 13.77491938
ECCENTRICITY   = .00231547
INCLINATION    = 82.9418
RA_OF_ASC_NODE = 199.5732
ARG_OF_PERICENTER = 144.1783
MEAN_ANOMALY   = 342.9398

EPHEMERIS_TYPE = 0
CLASSIFICATION_TYPE = U
NORAD_CAT_ID   = 21088
ELEMENT_SET_NO = 999
REV_AT_EPOCH   = 75860
BSTAR          = -.4448252E-5
MEAN_MOTION_DOT = .11E-6
MEAN_MOTION_DDOT = 0

CCSDS_OMM_VERS = 2.0
CREATION_DATE  = 
ORIGINATOR     = 

OBJECT_NAME    = OKEAN-3
OBJECT_ID      = 1991-039A
CENTER_NAME    = EARTH
REF_FRAME      = TEME
TIME_SYSTEM    = UTC
MEAN_ELEMENT_THEORY = SGP/SGP4

EPOCH          = 2026-01-28T23:26:48.189696
MEAN_MOTION    = 15.04482923
ECCENTRICITY   = .00159599
INCLINATION    = 82.5173
RA_OF_ASC_NODE = 15.3055
ARG_OF_PERICENTER = 104.0609
MEAN_ANOMALY   = 256.2392

EPHEMERIS_TYPE = 0
CLASSIFICATION_TYPE = U
NORAD_CAT_ID   = 21397
ELEMENT_SET_NO = 999
REV_AT_EPOCH   = 85906
BSTAR          = .40267533E-3
MEAN_MOTION_DOT = .5677E-4
MEAN_MOTION_DDOT = 0

CCSDS_OMM_VERS = 2.0
CREATION_DATE  = 
ORIGINATOR     = 

OBJECT_NAME    = COSMOS 2151
OBJECT_ID      = 1991-042A
CENTER_NAME    = EARTH
REF_FRAME      = TEME
TIME_SYSTEM    = UTC
MEAN_ELEMENT_THEORY = SGP/SGP4

EPOCH          = 2026-01-28T22:13:05.232000
MEAN_MOTION    = 14.99939146
ECCENTRICITY   = .00123259
INCLINATION    = 82.4980
RA_OF_ASC_NODE = 122.0281
ARG_OF_PERICENTER = 187.3619
MEAN_ANOMALY   = 172.7426

EPHEMERIS_TYPE = 0
CLASSIFICATION_TYPE = U
NORAD_CAT_ID   = 21422
ELEMENT_SET_NO = 999
REV_AT_EPOCH   = 85723
BSTAR          = .29564117E-3
MEAN_MOTION_DOT = .3701E-4
MEAN_MOTION_DDOT = 0

