DELTA 2 R/B(1)          
1 20453U 90008B   26028.84282368  .00073020  00000+0  10017-2 0  9992
2 20453  35.6054  75.2626 0099273 249.0413 109.9675 15.50468152919935
COSMOS 2058             
1 20465U 90010A   26028.85151900  .00005295  00000+0  31535-3 0  9994
2 20465  82.4651  86.6746 0011803 107.9257 252.3261 15.10953974936223
SL-14 R/B               
1 20466U 90010B   26028.82551617  .00000780  00000+0  91540-4 0  9998
2 20466  82.5043 304.8314 0021356  72.5257 287.8290 14.83530339922570
SL-14 R/B               
1 20511U 90018B   26028.93987141  .00000632  00000+0  76381-4 0  9996
2 20511  82.5194 260.2519 0015359 219.0555 140.9552 14.82103833916695
HST                     
1 20580U 90037B   26028.93596839  .00011557  00000+0  39257-3 0  9991
2 20580  28.4680 311.0608 0001889  37.6282 322.4445 15.28827552767221
SL-16 R/B               
1 20625U 90046B   26028.96835054 -.00000213  00000+0 -85318-4 0  9998
2 20625  70.9994  21.3330 0014259 354.6075   5.4892 14.15006145842771
COSMOS 2084             
1 20663U 90055A   26028.67046850  .00004481  00000+0  32310-3 0  9998
2 20663  62.7905 112.0435 0023540 181.9969 178.1041 15.05384035930290
SL-6 R/B(2)             
1 20666U 90055D   26028.99816441  .00004070  00000+0  31144-3 0  9995
2 20666  62.7840  28.8045 0018960 334.8333  25.1840 15.03364584932224
SL-8 R/B                
1 20775U 90078B   26028.70875724  .00024671  00000+0  73467-3 0  9992
2 20775  82.9046 287.2246 0367916 147.9182 214.5023 14.87696473803358
SL-8 R/B                
1 21088U 91006B   26028.97800581  .00000011  00000+0 -44483-5 0  9991
2 21088  82.9418 199.5732 0023154 144.1783 342.9398 13.77491938758608
OKEAN-3                 
1 21397U 91039A   26028.97694664  .00005677  00000+0  40268-3 0  9990
2 21397  82.5173  15.3055 0015959 104.0609 256.2392 15.04482923859063
COSMOS 2151             
1 21422U 91042A   26028.92575500  .00003701  00000+0  29564-3 0  9997
2 21422  82.4980 122.0281 0012325 187.3619 172.7426 14.99939146857237
